$$SOE
2461302.500000000, A.D. 2026-Sep-19 00:00:00.0000, 4.863921798687582E+08, -8.095976704100785E+07, -6.057995074237666E+07,
2461309.500000000, A.D. 2026-Sep-26 00:00:00.0000, 4.878459384637821E+08, -7.147210902038890E+07, -6.224779486181973E+07,
2461316.500000000, A.D. 2026-Oct-03 00:00:00.0000, 4.891067692034820E+08, -6.195621404039419E+07, -6.389101820319681E+07,
2461323.500000000, A.D. 2026-Oct-10 00:00:00.0000, 4.901743717791171E+08, -5.241587314543242E+07, -6.550899672718372E+07,
2461330.500000000, A.D. 2026-Oct-17 00:00:00.0000, 4.910485165985645E+08, -4.285487869992927E+07, -6.710111679135498E+07,
2461337.500000000, A.D. 2026-Oct-24 00:00:00.0000, 4.917290444924441E+08, -3.327702329720085E+07, -6.866677528870147E+07,
2461344.500000000, A.D. 2026-Oct-31 00:00:00.0000, 4.922158664978992E+08, -2.368609884021043E+07, -7.020537980463883E+07,
2461351.500000000, A.D. 2026-Nov-07 00:00:00.0000, 4.925089640605826E+08, -1.408589572039440E+07, -7.171634881781736E+07,
2461358.500000000, A.D. 2026-Nov-14 00:00:00.0000, 4.926083898561536E+08, -4.480201207271773E+06, -7.319911189062761E+07,
2461365.500000000, A.D. 2026-Nov-21 00:00:00.0000, 4.925142674206411E+08, 5.127203633565214E+06, -7.465310962748352E+07,
2461372.500000000, A.D. 2026-Nov-28 00:00:00.0000, 4.922267885936277E+08, 1.473254548547361E+07, -7.607779355539823E+07,
2461379.500000000, A.D. 2026-Dec-05 00:00:00.0000, 4.917462123935133E+08, 2.433205813131802E+07, -7.747262631231786E+07,
2461386.500000000, A.D. 2026-Dec-12 00:00:00.0000, 4.910728654883118E+08, 3.392198272084889E+07, -7.883708190356976E+07,
2461393.500000000, A.D. 2026-Dec-19 00:00:00.0000, 4.902071423744384E+08, 4.349856896216831E+07, -8.017064585245863E+07,
2461400.500000000, A.D. 2026-Dec-26 00:00:00.0000, 4.891495051213073E+08, 5.305807636976482E+07, -8.147281530271521E+07,
2461407.500000000, A.D. 2027-Jan-02 00:00:00.0000, 4.879004829575100E+08, 6.259677537851332E+07, -8.274309911358407E+07,
2461414.500000000, A.D. 2027-Jan-09 00:00:00.0000, 4.864606718150522E+08, 7.211094834406033E+07, -8.398101795655823E+07,
2461421.500000000, A.D. 2027-Jan-16 00:00:00.0000, 4.848307338661257E+08, 8.159689043865082E+07, -8.518610441627611E+07,
2461428.500000000, A.D. 2027-Jan-23 00:00:00.0000, 4.830113970973160E+08, 9.105091040297227E+07, -8.635790310312638E+07,
2461435.500000000, A.D. 2027-Jan-30 00:00:00.0000, 4.810034551077206E+08, 1.004693311062210E+08, -8.749597079886195E+07,
2461442.500000000, A.D. 2027-Feb-06 00:00:00.0000, 4.788077675538248E+08, 1.098484902540630E+08, -8.859987664648435E+07,
2461449.500000000, A.D. 2027-Feb-13 00:00:00.0000, 4.764252607780773E+08, 1.191847424644154E+08, -8.966920224233069E+07,
2461456.500000000, A.D. 2027-Feb-20 00:00:00.0000, 4.738569262562396E+08, 1.284744619215865E+08, -9.070354147839633E+07,
2461463.500000000, A.D. 2027-Feb-27 00:00:00.0000, 4.711038182604750E+08, 1.377140423954913E+08, -9.170250052634829E+07,
2461470.500000000, A.D. 2027-Mar-06 00:00:00.0000, 4.681670537555763E+08, 1.468998965477033E+08, -9.266569808320859E+07,
2461477.500000000, A.D. 2027-Mar-13 00:00:00.0000, 4.650478129266932E+08, 1.560284565740123E+08, -9.359276556438461E+07,
2461484.500000000, A.D. 2027-Mar-20 00:00:00.0000, 4.617473392088540E+08, 1.650961753495497E+08, -9.448334720882760E+07,
2461491.500000000, A.D. 2027-Mar-27 00:00:00.0000, 4.582669390204313E+08, 1.740995275280343E+08, -9.533710015993941E+07,
2461498.500000000, A.D. 2027-Apr-03 00:00:00.0000, 4.546079814035398E+08, 1.830350105477917E+08, -9.615369454492550E+07,
2461505.500000000, A.D. 2027-Apr-10 00:00:00.0000, 4.507718976326242E+08, 1.918991455680161E+08, -9.693281355646515E+07,
2461512.500000000, A.D. 2027-Apr-17 00:00:00.0000, 4.467601808133464E+08, 2.006884783214445E+08, -9.767415354002374E+07,
2461519.500000000, A.D. 2027-Apr-24 00:00:00.0000, 4.425743855511779E+08, 2.093995798218293E+08, -9.837742409933046E+07,
2461526.500000000, A.D. 2027-May-01 00:00:00.0000, 4.382161279897274E+08, 2.180290469543607E+08, -9.904234824547336E+07,
2461533.500000000, A.D. 2027-May-08 00:00:00.0000, 4.336870865261263E+08, 2.265735036971274E+08, -9.966866255670266E+07,
2461540.500000000, A.D. 2027-May-15 00:00:00.0000, 4.289890017053546E+08, 2.350296039270543E+08, -1.002561171333681E+08,
2461547.500000000, A.D. 2027-May-22 00:00:00.0000, 4.241236737298180E+08, 2.433940332203092E+08, -1.008044754164972E+08,
2461554.500000000, A.D. 2027-May-29 00:00:00.0000, 4.190929609419613E+08, 2.516635081790928E+08, -1.013135142984429E+08,
2461561.500000000, A.D. 2027-Jun-05 00:00:00.0000, 4.138987801642878E+08, 2.598347764149158E+08, -1.017830243505048E+08,
2461568.500000000, A.D. 2027-Jun-12 00:00:00.0000, 4.085431068874272E+08, 2.679046176193616E+08, -1.022128099472972E+08,
2461575.500000000, A.D. 2027-Jun-19 00:00:00.0000, 4.030279749737095E+08, 2.758698447874520E+08, -1.026026893332204E+08,
2461582.500000000, A.D. 2027-Jun-26 00:00:00.0000, 3.973554761544961E+08, 2.837273053330515E+08, -1.029524946775265E+08,
2461589.500000000, A.D. 2027-Jul-03 00:00:00.0000, 3.915277594528462E+08, 2.914738821058635E+08, -1.032620721292293E+08,
2461596.500000000, A.D. 2027-Jul-10 00:00:00.0000, 3.855470305685659E+08, 2.991064943200527E+08, -1.035312818746367E+08,
2461603.500000000, A.D. 2027-Jul-17 00:00:00.0000, 3.794155512626801E+08, 3.066220983565569E+08, -1.037599982042417E+08,
2461610.500000000, A.D. 2027-Jul-24 00:00:00.0000, 3.731356388985217E+08, 3.140176883767294E+08, -1.039481096086396E+08,
2461617.500000000, A.D. 2027-Jul-31 00:00:00.0000, 3.667096665515472E+08, 3.212902969827245E+08, -1.040955189220496E+08,
2461624.500000000, A.D. 2027-Aug-07 00:00:00.0000, 3.601400634870041E+08, 3.284369970752161E+08, -1.042021434005962E+08,
2461631.500000000, A.D. 2027-Aug-14 00:00:00.0000, 3.534293137024246E+08, 3.354549046542666E+08, -1.042679145441217E+08,
2461638.500000000, A.D. 2027-Aug-21 00:00:00.0000, 3.465799531523595E+08, 3.423411792006988E+08, -1.042927779931202E+08,
2461645.500000000, A.D. 2027-Aug-28 00:00:00.0000, 3.395945690875006E+08, 3.490930228417851E+08, -1.042766937177547E+08,
2461652.500000000, A.D. 2027-Sep-04 00:00:00.0000, 3.324758003264880E+08, 3.557076808025179E+08, -1.042196361859894E+08,
2461659.500000000, A.D. 2027-Sep-11 00:00:00.0000, 3.252263370638633E+08, 3.621824424809020E+08, -1.041215944367211E+08,
2461666.500000000, A.D. 2027-Sep-18 00:00:00.0000, 3.178489203466682E+08, 3.685146424974496E+08, -1.039825721233944E+08,
2461673.500000000, A.D. 2027-Sep-25 00:00:00.0000, 3.103463414481105E+08, 3.747016616416868E+08, -1.038025875556778E+08,
2461680.500000000, A.D. 2027-Oct-02 00:00:00.0000, 3.027214412129482E+08, 3.807409277436857E+08, -1.035816737440747E+08,
2461687.500000000, A.D. 2027-Oct-09 00:00:00.0000, 2.949771093966784E+08, 3.866299164666008E+08, -1.033198784501229E+08,
2461694.500000000, A.D. 2027-Oct-16 00:00:00.0000, 2.871162840613844E+08, 3.923661519658753E+08, -1.030172642526683E+08,
2461701.500000000, A.D. 2027-Oct-23 00:00:00.0000, 2.791419512879913E+08, 3.979472074100810E+08, -1.026739086547663E+08,
2461708.500000000, A.D. 2027-Oct-30 00:00:00.0000, 2.710571455799633E+08, 4.033707059741598E+08, -1.022899042160122E+08,
2461715.500000000, A.D. 2027-Nov-06 00:00:00.0000, 2.628649497950864E+08, 4.086343234322519E+08, -1.018653585112491E+08,
2461722.500000000, A.D. 2027-Nov-13 00:00:00.0000, 2.545684926181565E+08, 4.137357902727236E+08, -1.014003939023744E+08,
2461729.500000000, A.D. 2027-Nov-20 00:00:00.0000, 2.461709464754831E+08, 4.186728911509069E+08, -1.008951475680433E+08,
2461736.500000000, A.D. 2027-Nov-27 00:00:00.0000, 2.376755275095634E+08, 4.234434646444038E+08, -1.003497716977030E+08,
2461743.500000000, A.D. 2027-Dec-04 00:00:00.0000, 2.290854955896867E+08, 4.280454042235422E+08, -9.976443358914223E+07,
2461750.500000000, A.D. 2027-Dec-11 00:00:00.0000, 2.204041538064601E+08, 4.324766594724920E+08, -9.913931567731145E+07,
2461757.500000000, A.D. 2027-Dec-18 00:00:00.0000, 2.116348477241569E+08, 4.367352372221326E+08, -9.847461554715198E+07,
2461764.500000000, A.D. 2027-Dec-25 00:00:00.0000, 2.027809645421390E+08, 4.408192025929067E+08, -9.777054594453569E+07,
2461771.500000000, A.D. 2028-Jan-01 00:00:00.0000, 1.938459322062747E+08, 4.447266799626595E+08, -9.702733478797248E+07,
$$EOE